{"fetched_at":"2026-03-29T02:12:04Z","count":15717,"tles":[{"name":"STARLINK-34784","line1":"1 65458U 25195A   26087.54565097  .00016542  00000+0  56925-3 0  9991","line2":"2 65458  53.1592 170.3870 0001487  76.6135 283.5031 15.30208697 32883","category":"Starlink"}]}